UWE-4                   
1 43880U 18111E   24028.30250821  .00008314  00000+0  57056-3 0  9993
2 43880  97.6216 295.3544 0018835 125.1530 235.1465 15.06106424278204
JAISAT-1                
1 44419U 19038F   24028.52611710  .00067133  00000+0  12189-2 0  9994
2 44419  97.6848  25.6682 0008825 191.3099 168.7954 15.49304206253172
DUCHIFAT-3              
1 44854U 19089C   24028.56887720  .00012349  00000+0  71812-3 0  9991
2 44854  36.9581 179.3440 0008545  14.7869 345.3125 15.11474350226952
TIANYAN 01              
1 44881U 19093C   24028.54107508  .00001533  00000+0  19375-3 0  9992
2 44881  97.8421 108.0213 0015792  64.9794 295.3057 14.83217145222199
RS-44 & BREEZE-KM R/B   
1 44909U 19096E   24028.54209583 -.00000001  00000+0 -50394-4 0  9990
2 44909  82.5208 198.2047 0217722  20.3198 340.6401 12.79726152190985
BY70-2                  
1 45857U 20042B   24028.58737543  .00046553  00000+0  32358-2 0  9990
2 45857  97.9193 116.2853 0007832 324.6486  35.4220 15.05323375193258
SALSAT                  
1 46495U 20068K   24028.43318519  .00006951  00000+0  42288-3 0  9991
2 46495  97.7995 344.6275 0016345  75.2899 285.0140 15.10653692183040
RADFXSAT-2 (AO-109)     
1 47311U 21002C   24028.06109313  .00107711  00000+0  11426-2 0  9992
2 47311  60.6712 261.8782 0026353  70.7012 289.6941 15.63019579169102
UVSQ-SAT                
1 47438U 21006AB  24028.09993257  .00033200  00000+0  97900-3 0  9990
2 47438  97.3515  88.0460 0008037  11.7141 348.4287 15.34908057167010
LEDSAT                  
1 49069U 21073D   24028.16926916  .00014186  00000+0  66307-3 0  9991
2 49069  97.4562 100.7095 0022584  59.9399 300.4072 15.19666186135004
XW-3 (CAS-9)            
1 50466U 21131B   24028.57784065  .00000966  00000+0  32515-3 0  9996
2 50466  98.5367 114.3166 0004357 172.8391 187.2859 14.39327830109777
TEVEL-3                 
1 50988U 22002E   24028.54743183  .00049633  00000+0  12344-2 0  9997
2 50988  97.4027 100.6856 0005309 147.5674 212.5899 15.40117348113250
TEVEL-8                 
1 50989U 22002F   24028.44773558  .00043827  00000+0  10951-2 0  9997
2 50989  97.4045 100.6673 0005287 145.5619 214.5970 15.40004436113233
TEVEL-5                 
1 50998U 22002Q   24028.45219843  .00048536  00000+0  11391-2 0  9991
2 50998  97.4020 101.3556 0006038 140.4952 219.6736 15.41876576113298
TEVEL-6                 
1 50999U 22002R   24028.45216275  .00047970  00000+0  11270-2 0  9995
2 50999  97.4020 101.3418 0006013 140.6246 219.5439 15.41847940113299
TEVEL-1                 
1 51013U 22002AF  24028.56635591  .00046744  00000+0  11665-2 0  9997
2 51013  97.4019 100.6023 0005133 146.2100 213.9474 15.40029031113257
TEVEL-7                 
1 51062U 22002CG  24028.57356590  .00047026  00000+0  11714-2 0  9990
2 51062  97.4039 100.7650 0005295 145.5606 214.5984 15.40082656113257
TEVEL-4                 
1 51063U 22002CH  24028.46278991  .00044559  00000+0  11165-2 0  9995
2 51063  97.4038 100.6001 0005278 145.6886 214.4701 15.39915839113238
TEVEL-2                 
1 51069U 22002CP  24028.54765139  .00049219  00000+0  12235-2 0  9992
2 51069  97.4024 100.6526 0005255 147.0965 213.0609 15.40134658113258
GREENCUBE               
1 53106U 22080B   24023.90926672 -.00000003  00000+0  00000+0 0  9991
2 53106  70.1321 243.0011 0008307 135.9399 224.1923  6.42557719 35938
CYCLOPS (RS29S)         
1 53373U 22096D   24028.02190661  .00243324  00000+0  15153-2 0  9995
2 53373  97.3945 305.9381 0006514 102.4836 257.7159 15.76222516 82552
MONITOR-1 (RS32S)       
1 53374U 22096E   24028.55617403  .00173666  00000+0  14091-2 0  9993
2 53374  97.3887 305.5046 0006252  96.3524 263.8450 15.70185764 82588
KUZBASS-300 (RS34S)     
1 53375U 22096F   24028.56657296  .00077644  00000+0  10911-2 0  9995
2 53375  97.3983 303.5428 0004614  84.1137 276.0644 15.56429251 82445
UTMN (RS23S)            
1 53376U 22096G   24028.60720345  .00085624  00000+0  10905-2 0  9997
2 53376  97.3960 304.0642 0004946  90.3482 269.8341 15.59038580 82487
MIET-AIS (RS28S)        
1 53377U 22096H   24028.55908640  .00064346  00000+0  99832-3 0  9993
2 53377  97.4000 303.1380 0004143  86.0698 274.1029 15.53771931 82416
KAI-1 (RS26S)           
1 53378U 22096J   24028.59179490  .00043879  00000+0  81304-3 0  9994
2 53378  97.4047 302.1019 0003789  82.9419 277.2262 15.48861947 82343
ISOI (RS19S)            
1 53381U 22096M   24028.54726538  .00071702  00000+0  10575-2 0  9991
2 53381  97.4021 303.7335 0002786  67.9290 292.2260 15.55142040 82454
CUBESX-HSE-2 (RS21S)    
1 53383U 22096P   24028.57471094  .00084758  00000+0  10978-2 0  9992
2 53383  97.3971 304.2837 0002855  63.8785 296.2764 15.58602511 82497
SIREN (RS30S)           
1 53384U 22096Q   24028.54718536  .00056661  00000+0  94205-3 0  9993
2 53384  97.4018 303.0206 0002330  47.8138 312.3312 15.51882753 82401
GEOSCAN-EDELVEIS (RS20S)
1 53385U 22096R   24028.33473324  .00370952  00000+0  15004-2 0  9995
2 53385  97.3901 307.7497 0004656 108.9962 251.1813 15.85377022 82739
CAS-5A (FO-118)         
1 54684U 22167C   24028.59069438  .00021183  00000+0  93109-3 0  9994
2 54684  97.5857 171.2179 0011145 278.4405  81.5567 15.21869249 62861
STRATOSAT-TK 1 (RS52S)  
1 57167U 23091B   24028.59557152  .00011614  00000+0  76050-3 0  9999
2 57167  97.6344  82.4135 0015277 237.6336 122.3414 15.07799623 32344
UMKA 1 (RS40S)          
1 57172U 23091G   24028.58827043  .00004684  00000+0  32845-3 0  9996
2 57172  97.6340  82.1155 0016031 237.7300 122.2374 15.05578127 32320
CUBESX-HSE 3 (RS42S)    
1 57178U 23091N   24028.56601548  .00007419  00000+0  50917-3 0  9999
2 57178  97.6371  82.2479 0017206 233.2678 126.6969 15.06167499 32329
MONITOR-4 (RS57S)       
1 57182U 23091S   24028.58630690  .00006230  00000+0  43135-3 0  9990
2 57182  97.6362  82.1898 0017207 233.3881 126.5763 15.05903851 32326
MONITOR-2 (RS39S)       
1 57184U 23091U   24028.57605613  .00004265  00000+0  29665-3 0  9996
2 57184  97.6365  82.3691 0013654 226.5323 133.4769 15.05964052 32335
SVYATOBOR 1 (RS60S)     
1 57187U 23091X   24028.57481282  .00006588  00000+0  44536-3 0  9997
2 57187  97.6366  82.5274 0013322 224.2928 135.7234 15.06821118 32345
VIZARD-METEO (RS38S)    
1 57189U 23091Z   24028.56505702  .00008484  00000+0  55958-3 0  9999
2 57189  97.6364  82.6729 0012315 222.1806 137.8475 15.07657156 32355
NANOZOND 1 (RS49S)      
1 57190U 23091AA  24028.60585220  .00010493  00000+0  66756-3 0  9990
2 57190  97.6345  82.8524 0010541 226.1952 133.8406 15.08940028 32372
POLYTECH-UNIVERSE 3 (R*)
1 57191U 23091AB  24028.57053442  .00005444  00000+0  37810-3 0  9992
2 57191  97.6330  82.1327 0019110 245.7373 114.1858 15.05817375 32329
UTMN 2 (RS27S)          
1 57203U 23091AP  24028.58776694  .00006480  00000+0  43168-3 0  9992
2 57203  97.6364  82.6420 0012499 221.4562 138.5719 15.07380743 32358
ARCCUBE 1 (RS25S)       
1 57205U 23091AR  24028.58564556  .00011810  00000+0  74182-3 0  9999
2 57205  97.6317  82.8289 0010911 229.0312 130.9973 15.09373211 32371
KUZGTU 1 (RS47S)        
1 57217U 23091AV  24028.56571704  .00007784  00000+0  53479-3 0  9994
2 57217  97.6348  82.1797 0017090 234.6679 125.2951 15.06111356 32323
HADES-D (SO-121)        
1 58567U 23174CY  24027.70058461  .00030915  00000+0  15563-2 0  9993
2 58567  97.4733 104.4008 0015149   7.2147 352.9302 15.17042169 12254
